{
  "norad_id": 59703,
  "name": "STARLINK-32086",
  "history": [
    {
      "epoch": "2026-03-28T21:34:15.485376",
      "apogee_km": 484.03089716500745,
      "perigee_km": 482.13527927903397,
      "latitude_deg": 31.381562270769535,
      "longitude_deg": -123.41612736019306,
      "semi_major_axis_km": 6861.22008822202,
      "eccentricity": 0.00013814,
      "inclination_deg": 43.0016,
      "raan_deg": 311.0971,
      "arg_perigee_deg": 271.7347,
      "mean_anomaly_deg": 88.3346,
      "mean_motion_rev_day": 15.27568648
    }
  ]
}