{"fetched_at":"2026-03-30T06:02:59Z","count":15439,"tles":[{"name":"STARLINK-32086","line1":"1 59703U 24086X   26087.89879034 -.00002141  00000+0 -68318-4 0  9994","line2":"2 59703  43.0016 311.0971 0001381 271.7347  88.3346 15.27568648107053","category":"Starlink"}]}